[{"OBJECT_NAME":"TWILIGHT-1 OBJECT AC","OBJECT_ID":"2026-004AC","EPOCH":"2026-03-09T12:46:33.802752","MEAN_MOTION":15.17544269,"ECCENTRICITY":0.00027973,"INCLINATION":97.4598,"RA_OF_ASC_NODE":69.0026,"ARG_OF_PERICENTER":3.0882,"MEAN_ANOMALY":357.0369,"EPHEMERIS_TYPE":0,"CLASSIFICATION_TYPE":"U","NORAD_CAT_ID":67389,"ELEMENT_SET_NO":999,"REV_AT_EPOCH":863,"BSTAR":0.00031419474,"MEAN_MOTION_DOT":6.24e-5,"MEAN_MOTION_DDOT":0},{"OBJECT_NAME":"NOAA 17 DEB","OBJECT_ID":"2002-032CE","EPOCH":"2026-03-09T04:37:56.707680","MEAN_MOTION":15.14538728,"ECCENTRICITY":0.00195132,"INCLINATION":98.8443,"RA_OF_ASC_NODE":158.3366,"ARG_OF_PERICENTER":246.7141,"MEAN_ANOMALY":113.2034,"EPHEMERIS_TYPE":0,"CLASSIFICATION_TYPE":"U","NORAD_CAT_ID":48745,"ELEMENT_SET_NO":999,"REV_AT_EPOCH":26329,"BSTAR":0.0059143418,"MEAN_MOTION_DOT":0.00111029,"MEAN_MOTION_DDOT":0}]
